NORAD_CAT_ID,OBJECT_NAME,OBJECT_TYPE,EPOCH,MEAN_MOTION,ECCENTRICITY,INCLINATION,RA_OF_ASC_NODE,ARG_OF_PERICENTER,MEAN_ANOMALY,BSTAR,MEAN_MOTION_DOT,MEAN_MOTION_DDOT,TLE_LINE0,TLE_LINE1,TLE_LINE2,SEMIMAJOR_AXIS,PERIOD,APOGEE,PERIGEE,DECAYED
55292.0,STARLINK-5325,PAYLOAD,2023-07-26 08:54:08,14.98335273,0.0003487,69.9992,278.1379,269.1275,90.9484,-5.6784e-05,-7.71e-06,0.0,0 STARLINK-5325,1 55292U 23010Z   23207.37092989 -.00000771  00000-0 -56784-4 0  9991,2 55292  69.9992 278.1379 0003487 269.1275  90.9484 14.98335273 29875,6950.177,96.107,574.465,569.618,0.0
55292.0,STARLINK-5325,PAYLOAD,2023-07-27 10:32:17,14.98324648,0.0003543,69.9989,275.4443,269.5304,90.5449,-2.0356e-05,-3.36e-06,0.0,0 STARLINK-5325,1 55292U 23010Z   23208.43909347 -.00000336  00000-0 -20356-4 0  9997,2 55292  69.9989 275.4443 0003543 269.5304  90.5449 14.98324648 29728,6950.209,96.107,574.537,569.612,0.0
55292.0,STARLINK-5325,PAYLOAD,2023-07-27 16:56:49,14.983318,0.0003522,69.9989,274.7706,271.1495,88.926,3.5257e-05,3.28e-06,0.0,0 STARLINK-5325,1 55292U 23010Z   23208.70612757  .00000328  00000-0  35257-4 0  9998,2 55292  69.9989 274.7706 0003522 271.1495  88.9260 14.98331800 29763,6950.187,96.107,574.5,569.604,0.0
55292.0,STARLINK-5325,PAYLOAD,2023-07-27 21:45:14,14.98325151,0.0003363,69.9997,274.2651,273.002,87.0754,-5.0736e-05,-6.98e-06,0.0,0 STARLINK-5325,1 55292U 23010Z   23208.90641468 -.00000698  00000-0 -50736-4 0  9992,2 55292  69.9997 274.2651 0003363 273.0020  87.0754 14.98325151 30104,6950.208,96.107,574.41,569.736,0.0
55292.0,STARLINK-5325,PAYLOAD,2023-07-28 07:22:02,14.98323562,0.0003227,69.9995,273.2553,262.8789,97.2003,-5.0826e-05,-6.99e-06,0.0,0 STARLINK-5325,1 55292U 23010Z   23209.30697593 -.00000699  00000-0 -50826-4 0  9998,2 55292  69.9995 273.2553 0003227 262.8789  97.2003 14.98323562 30169,6950.213,96.107,574.321,569.835,0.0
55292.0,STARLINK-5325,PAYLOAD,2023-07-28 21:47:15,14.98330318,0.000343,69.9987,271.74,267.2499,92.8268,-7.6524e-05,-1.006e-05,0.0,0 STARLINK-5325,1 55292U 23010Z   23209.90781281 -.00001006  00000-0 -76524-4 0  9998,2 55292  69.9987 271.7400 0003430 267.2499  92.8268 14.98330318 29942,6950.192,96.107,574.441,569.673,0.0
55292.0,STARLINK-5325,PAYLOAD,2023-07-29 12:12:27,14.98337187,0.0003645,69.9984,270.225,268.3739,91.7003,-3.3733e-07,-9.7e-07,0.0,0 STARLINK-5325,1 55292U 23010Z   23210.50864656 -.00000097  00000-0 -33733-6 0  9990,2 55292  69.9984 270.2250 0003645 268.3739  91.7003 14.98337187 30031,6950.171,96.107,574.569,569.502,0.0
55292.0,STARLINK-5325,PAYLOAD,2023-07-30 02:37:40,14.98326801,0.0003455,69.9985,268.7103,270.8642,89.2121,5.373e-05,5.48e-06,0.0,0 STARLINK-5325,1 55292U 23010Z   23211.10949114  .00000548  00000-0  53730-4 0  9996,2 55292  69.9985 268.7103 0003455 270.8642  89.2121 14.98326801 30125,6950.203,96.107,574.469,569.666,0.0
55292.0,STARLINK-5325,PAYLOAD,2023-07-31 02:39:41,14.98319397,0.0003447,69.9987,266.1854,271.3819,88.6945,0.00022784,2.626e-05,0.0,0 STARLINK-5325,1 55292U 23010Z   23212.11089154  .00002626  00000-0  22784-3 0  9990,2 55292  69.9987 266.1854 0003447 271.3819  88.6945 14.98319397 30270,6950.226,96.108,574.486,569.695,0.0
55292.0,STARLINK-5325,PAYLOAD,2023-07-31 10:40:20,14.98334806,0.000333,69.999,265.3446,267.1798,92.898,4.3131e-06,-4.2e-07,0.0,0 STARLINK-5325,1 55292U 23010Z   23212.44468600 -.00000042  00000-0  43131-5 0  9995,2 55292  69.9990 265.3446 0003330 267.1798  92.8980 14.98334806 30326,6950.178,96.107,574.357,569.729,0.0
55292.0,STARLINK-5325,PAYLOAD,2023-08-01 13:54:38,14.98329578,0.000334,69.9988,262.4825,270.1591,89.9185,-8.8935e-06,-1.99e-06,0.0,0 STARLINK-5325,1 55292U 23010Z   23213.57960814 -.00000199  00000-0 -88935-5 0  9999,2 55292  69.9988 262.4825 0003340 270.1591  89.9185 14.98329578 30490,6950.194,96.107,574.381,569.738,0.0
55292.0,STARLINK-5325,PAYLOAD,2023-08-03 10:46:23,14.98329029,0.0003157,69.999,257.7695,263.6208,96.4591,9.428e-05,1.032e-05,0.0,0 STARLINK-5325,1 55292U 23010Z   23215.44888450  .00001032  00000-0  94280-4 0  9996,2 55292  69.9990 257.7695 0003157 263.6208  96.4591 14.98329029 30779,6950.196,96.107,574.255,569.867,0.0
55292.0,STARLINK-5325,PAYLOAD,2023-08-04 10:48:25,14.98322845,0.0003472,69.9982,255.2442,266.7403,93.3359,-2.7882e-05,-4.26e-06,0.0,0 STARLINK-5325,1 55292U 23010Z   23216.45029261 -.00000426  00000-0 -27882-4 0  9997,2 55292  69.9982 255.2442 0003472 266.7403  93.3359 14.98322845 30928,6950.215,96.107,574.493,569.667,0.0
55292.0,STARLINK-5325,PAYLOAD,2023-08-05 02:49:45,14.98333921,0.0003417,69.9982,253.5616,264.2608,95.8161,-5.1614e-05,-7.09e-06,0.0,0 STARLINK-5325,1 55292U 23010Z   23217.11788729 -.00000709  00000-0 -51614-4 0  9996,2 55292  69.9982 253.5616 0003417 264.2608  95.8161 14.98333921 31028,6950.181,96.107,574.421,569.671,0.0
55292.0,STARLINK-5325,PAYLOAD,2023-08-06 04:27:54,14.98326117,0.0003485,69.998,250.8675,265.7307,94.3454,4.3357e-05,4.24e-06,0.0,0 STARLINK-5325,1 55292U 23010Z   23218.18604782  .00000424  00000-0  43357-4 0  9997,2 55292  69.9980 250.8675 0003485 265.7307  94.3454 14.98326117 31183,6950.205,96.107,574.492,569.648,0.0
55292.0,STARLINK-5325,PAYLOAD,2023-08-07 09:18:19,14.98332714,0.0003557,69.9978,247.8375,268.0073,92.0679,-1.7058e-05,-2.97e-06,0.0,0 STARLINK-5325,1 55292U 23010Z   23219.38772600 -.00000297  00000-0 -17058-4 0  9994,2 55292  69.9978 247.8375 0003557 268.0073  92.0679 14.98332714 31363,6950.184,96.107,574.522,569.577,0.0
55292.0,STARLINK-5325,PAYLOAD,2023-08-08 10:56:28,14.98330088,0.0003554,69.9977,245.1442,267.8141,92.2611,2.0069e-05,1.46e-06,0.0,0 STARLINK-5325,1 55292U 23010Z   23220.45588537  .00000146  00000-0  20069-4 0  9995,2 55292  69.9977 245.1442 0003554 267.8141  92.2611 14.98330088 31526,6950.193,96.107,574.528,569.588,0.0
55292.0,STARLINK-5325,PAYLOAD,2023-08-09 12:34:37,14.98330829,0.0003309,69.9976,242.4498,263.3608,96.7175,-1.2641e-05,-2.44e-06,0.0,0 STARLINK-5325,1 55292U 23010Z   23221.52404579 -.00000244  00000-0 -12641-4 0  9995,2 55292  69.9976 242.4498 0003309 263.3608  96.7175 14.98330829 31687,6950.19,96.107,574.355,569.756,0.0
55292.0,STARLINK-5325,PAYLOAD,2023-08-10 19:01:10,14.98321076,0.0003617,69.9984,239.2512,259.6514,100.4237,0.0001674,1.904e-05,0.0,0 STARLINK-5325,1 55292U 23010Z   23222.79248628  .00001904  00000-0  16740-3 0  9991,2 55292  69.9984 239.2512 0003617 259.6514 100.4237 14.98321076 31870,6950.22,96.108,574.599,569.572,0.0
55292.0,STARLINK-5325,PAYLOAD,2023-08-11 11:02:31,14.98339003,0.0003643,69.9974,237.5684,268.215,91.8591,-8.53e-05,-1.111e-05,0.0,0 STARLINK-5325,1 55292U 23010Z   23223.46008102 -.00001111  00000-0 -85300-4 0  9998,2 55292  69.9974 237.5684 0003643 268.2150  91.8591 14.98339003 31977,6950.165,96.106,574.562,569.498,0.0
55292.0,STARLINK-5325,PAYLOAD,2023-08-12 03:03:51,14.98330872,0.0003615,69.9977,235.885,268.945,91.1295,-8.4345e-06,-1.94e-06,0.0,0 STARLINK-5325,1 55292U 23010Z   23224.12768311 -.00000194  00000-0 -84345-5 0  9996,2 55292  69.9977 235.8850 0003615 268.9450  91.1295 14.98330872 32076,6950.19,96.107,574.568,569.543,0.0
55292.0,STARLINK-5325,PAYLOAD,2023-08-13 17:31:05,14.98331187,0.0003591,69.9977,231.8446,269.6122,90.4625,-5.0785e-06,-1.54e-06,0.0,0 STARLINK-5325,1 55292U 23010Z   23225.72992077 -.00000154  00000-0 -50785-5 0  9998,2 55292  69.9977 231.8446 0003591 269.6122  90.4625 14.98331187 32316,6950.189,96.107,574.55,569.558,0.0
55292.0,STARLINK-5325,PAYLOAD,2023-08-14 17:33:06,14.98329436,0.0003587,69.9978,229.3198,269.0181,91.0567,-5.6535e-06,-1.61e-06,0.0,0 STARLINK-5325,1 55292U 23010Z   23226.73132202 -.00000161  00000-0 -56535-5 0  9993,2 55292  69.9978 229.3198 0003587 269.0181  91.0567 14.98329436 32469,6950.195,96.107,574.553,569.567,0.0
55292.0,STARLINK-5325,PAYLOAD,2023-08-15 17:35:07,14.98329237,0.000363,69.9978,226.7951,269.0268,91.0475,-1.6106e-06,-1.12e-06,0.0,0 STARLINK-5325,1 55292U 23010Z   23227.73272113 -.00000112  00000-0 -16106-5 0  9996,2 55292  69.9978 226.7951 0003630 269.0268  91.0475 14.98329237 32616,6950.195,96.107,574.583,569.537,0.0
55292.0,STARLINK-5325,PAYLOAD,2023-08-16 17:37:07,14.98330264,0.0003625,69.998,224.2699,268.3654,91.7089,2.6008e-05,2.17e-06,0.0,0 STARLINK-5325,1 55292U 23010Z   23228.73411985  .00000217  00000-0  26008-4 0  9994,2 55292  69.9980 224.2699 0003625 268.3654  91.7089 14.98330264 32762,6950.192,96.107,574.577,569.538,0.0
55292.0,STARLINK-5325,PAYLOAD,2023-08-18 03:15:54,14.98361755,0.0003219,69.9984,220.7351,253.7722,106.3083,0.00031939,3.723e-05,0.0,0 STARLINK-5325,1 55292U 23010Z   23230.13604487  .00003723  00000-0  31939-3 0  9995,2 55292  69.9984 220.7351 0003219 253.7722 106.3083 14.98361755 32974,6950.095,96.105,574.197,569.722,0.0
55292.0,STARLINK-5325,PAYLOAD,2023-08-18 09:40:28,14.98329821,0.0003417,69.9981,220.062,268.2349,91.8418,-5.117e-05,-7.04e-06,0.0,0 STARLINK-5325,1 55292U 23010Z   23230.40311183 -.00000704  00000-0 -51170-4 0  9991,2 55292  69.9981 220.0620 0003417 268.2349  91.8418 14.98329821 33013,6950.193,96.107,574.433,569.684,0.0
55292.0,STARLINK-5325,PAYLOAD,2023-08-19 09:42:29,14.98328874,0.0003278,69.9985,217.537,268.83,91.2483,-9.7948e-05,-1.262e-05,0.0,0 STARLINK-5325,1 55292U 23010Z   23231.40451370 -.00001262  00000-0 -97948-4 0  9998,2 55292  69.9985 217.5370 0003278 268.8300  91.2483 14.98328874 33167,6950.196,96.107,574.34,569.783,0.0
55292.0,STARLINK-5325,PAYLOAD,2023-08-20 09:44:30,14.98338537,0.0003118,69.9986,215.0122,266.7007,93.3795,-0.00032451,-3.964e-05,0.0,0 STARLINK-5325,1 55292U 23010Z   23232.40591294 -.00003964  00000-0 -32451-3 0  9997,2 55292  69.9986 215.0122 0003118 266.7007  93.3795 14.98338537 33313,6950.166,96.106,574.199,569.864,0.0
55292.0,STARLINK-5325,PAYLOAD,2023-08-21 08:10:24,14.9832405,0.0003057,69.9985,212.6556,268.9239,91.157,4.7329e-05,4.72e-06,0.0,0 STARLINK-5325,1 55292U 23010Z   23233.34055672  .00000472  00000-0  47329-4 0  9996,2 55292  69.9985 212.6556 0003057 268.9239  91.1570 14.98324050 33456,6950.211,96.107,574.201,569.952,0.0
